[{"OBJECT_NAME":"OBJECT C","OBJECT_ID":"2022-023C","EPOCH":"2026-03-09T22:57:27.819936","MEAN_MOTION":15.18202357,"ECCENTRICITY":0.00963055,"INCLINATION":63.4862,"RA_OF_ASC_NODE":247.9876,"ARG_OF_PERICENTER":349.5574,"MEAN_ANOMALY":10.3536,"EPHEMERIS_TYPE":0,"CLASSIFICATION_TYPE":"U","NORAD_CAT_ID":51948,"ELEMENT_SET_NO":999,"REV_AT_EPOCH":22265,"BSTAR":0.00022353772,"MEAN_MOTION_DOT":4.943e-5,"MEAN_MOTION_DDOT":0},{"OBJECT_NAME":"STARLINK-3683","OBJECT_ID":"2022-083AM","EPOCH":"2026-03-09T12:08:24.815328","MEAN_MOTION":15.08842316,"ECCENTRICITY":0.00014753,"INCLINATION":53.2177,"RA_OF_ASC_NODE":149.9345,"ARG_OF_PERICENTER":118.9772,"MEAN_ANOMALY":241.1369,"EPHEMERIS_TYPE":0,"CLASSIFICATION_TYPE":"U","NORAD_CAT_ID":53167,"ELEMENT_SET_NO":999,"REV_AT_EPOCH":20153,"BSTAR":-7.3409656e-5,"MEAN_MOTION_DOT":-1.456e-5,"MEAN_MOTION_DDOT":0}]
